0 COSMOS 2352
1 25363U 98036A   13283.40263512 -.00000025  00000-0 -25198-3 0  1499
2 25363 082.5950 215.5824 0351286 266.6490 198.5244 12.20070850682335
0 COSMOS 2352
1 25363U 98036A   13285.77572708 -.00000028  00000-0 -27848-3 0  1500
2 25363 082.5953 214.1836 0351287 261.6711 181.7472 12.20070821682625
0 COSMOS 2352
1 25363U 98036A   13288.15496271  .00000007  00000-0  19765-5 0  1512
2 25363 082.5953 212.7807 0351378 256.6423 191.9937 12.20070146682913
0 COSMOS 2352
1 25363U 98036A   13290.37225951  .00000002  00000-0 -41133-4 0  1524
2 25363 082.5953 211.4736 0351441 251.9768 210.9323 12.20070315683180
0 COSMOS 2352
1 25363U 98036A   13292.82697961 -.00000022  00000-0 -23448-3 0  1532
2 25363 082.5952 210.0266 0351460 246.8097 192.6972 12.20070495683489
0 COSMOS 2352
1 25363U 98036A   13295.04199770 -.00000019  00000-0 -20864-3 0  1540
2 25363 082.5950 208.7209 0351486 242.1466 201.6327 12.20070303683758
